[{"OBJECT_NAME":"STARLINK-32395","OBJECT_ID":"2024-193U","EPOCH":"2026-03-09T10:33:48.783744","MEAN_MOTION":15.30190646,"ECCENTRICITY":0.00011481,"INCLINATION":53.1606,"RA_OF_ASC_NODE":92.4999,"ARG_OF_PERICENTER":111.5436,"MEAN_ANOMALY":248.5687,"EPHEMERIS_TYPE":0,"CLASSIFICATION_TYPE":"U","NORAD_CAT_ID":61679,"ELEMENT_SET_NO":999,"REV_AT_EPOCH":7648,"BSTAR":-1.9995491e-5,"MEAN_MOTION_DOT":-9.51e-6,"MEAN_MOTION_DDOT":0},{"OBJECT_NAME":"TRANSPORTER-1 OBJECT AA","OBJECT_ID":"2021-006AA","EPOCH":"2026-03-09T22:58:14.761920","MEAN_MOTION":15.29982294,"ECCENTRICITY":0.00086604,"INCLINATION":97.2381,"RA_OF_ASC_NODE":112.457,"ARG_OF_PERICENTER":185.709,"MEAN_ANOMALY":174.4054,"EPHEMERIS_TYPE":0,"CLASSIFICATION_TYPE":"U","NORAD_CAT_ID":47437,"ELEMENT_SET_NO":999,"REV_AT_EPOCH":28414,"BSTAR":0.0002197941,"MEAN_MOTION_DOT":6.312e-5,"MEAN_MOTION_DDOT":0}]
